NORAD_CAT_ID,OBJECT_NAME,OBJECT_TYPE,EPOCH,MEAN_MOTION,ECCENTRICITY,INCLINATION,RA_OF_ASC_NODE,ARG_OF_PERICENTER,MEAN_ANOMALY,BSTAR,MEAN_MOTION_DOT,MEAN_MOTION_DDOT,TLE_LINE0,TLE_LINE1,TLE_LINE2,SEMIMAJOR_AXIS,PERIOD,APOGEE,PERIGEE,DECAYED
55422.0,STARLINK-5006,PAYLOAD,2024-04-03 21:23:06,14.98341946,0.0002584,70.0009,61.3634,267.5928,92.4936,-9.9489e-05,-1.28e-05,0.0,0 STARLINK-5006,1 55422U 23014AH  24094.89104742 -.00001280  00000-0 -99489-4 0  9998,2 55422  70.0009  61.3634 0002584 267.5928  92.4936 14.98341946 65998,6950.156,96.106,573.817,570.225,0.0
55422.0,STARLINK-5006,PAYLOAD,2024-04-04 03:47:38,14.98340174,0.0002535,70.001,60.6896,257.5674,102.5201,-8.884e-05,-1.153e-05,0.0,0 STARLINK-5006,1 55422U 23014AH  24095.15808576 -.00001153  00000-0 -88840-4 0  9992,2 55422  70.0010  60.6896 0002535 257.5674 102.5201 14.98340174 65096,6950.161,96.106,573.788,570.265,0.0
55422.0,STARLINK-5006,PAYLOAD,2024-04-04 15:00:34,14.98341008,0.0002837,70.0002,59.5108,264.5268,95.5567,-0.00014962,-1.878e-05,0.0,0 STARLINK-5006,1 55422U 23014AH  24095.62540331 -.00001878  00000-0 -14962-3 0  9993,2 55422  70.0002  59.5108 0002837 264.5268  95.5567 14.98341008 66108,6950.159,96.106,573.996,570.052,0.0
55422.0,STARLINK-5006,PAYLOAD,2024-04-05 03:49:39,14.98330576,0.0002872,70.0002,58.1641,270.9038,89.1792,6.6691e-05,7.03e-06,0.0,0 STARLINK-5006,1 55422U 23014AH  24096.15948495  .00000703  00000-0  66691-4 0  9996,2 55422  70.0002  58.1641 0002872 270.9038  89.1792 14.98330576 65241,6950.191,96.107,574.052,570.06,0.0
55422.0,STARLINK-5006,PAYLOAD,2024-04-05 07:01:55,14.98332485,0.0002842,70.0003,57.8276,271.105,88.9784,8.7977e-05,9.57e-06,0.0,0 STARLINK-5006,1 55422U 23014AH  24096.29300327  .00000957  00000-0  87977-4 0  9998,2 55422  70.0003  57.8276 0002842 271.1050  88.9784 14.98332485 66202,6950.185,96.107,574.025,570.075,0.0
55422.0,STARLINK-5006,PAYLOAD,2024-04-05 21:27:08,14.98330812,0.0002806,70.0006,56.3132,271.5149,88.5689,3.9116e-05,3.74e-06,0.0,0 STARLINK-5006,1 55422U 23014AH  24096.89384508  .00000374  00000-0  39116-4 0  9992,2 55422  70.0006  56.3132 0002806 271.5149  88.5689 14.98330812 66294,6950.19,96.107,574.006,570.105,0.0
55422.0,STARLINK-5006,PAYLOAD,2024-04-06 03:51:40,14.98332656,0.0002955,70.0007,55.6388,271.7693,88.3127,9.5644e-05,1.048e-05,0.0,0 STARLINK-5006,1 55422U 23014AH  24097.16088197  .00001048  00000-0  95644-4 0  9995,2 55422  70.0007  55.6388 0002955 271.7693  88.3127 14.98332656 65394,6950.185,96.107,574.103,569.996,0.0
55422.0,STARLINK-5006,PAYLOAD,2024-04-06 07:03:56,14.98332316,0.0002968,70.0007,55.3022,271.9127,88.1692,8.9416e-05,9.74e-06,0.0,0 STARLINK-5006,1 55422U 23014AH  24097.29440232  .00000974  00000-0  89416-4 0  9998,2 55422  70.0007  55.3022 0002968 271.9127  88.1692 14.98332316 66359,6950.186,96.107,574.114,569.988,0.0
55422.0,STARLINK-5006,PAYLOAD,2024-04-06 23:05:17,14.98329874,0.0002741,70.001,53.619,269.9891,90.0954,2.2611e-05,1.77e-06,0.0,0 STARLINK-5006,1 55422U 23014AH  24097.96200476  .00000177  00000-0  22611-4 0  9995,2 55422  70.0010  53.6190 0002741 269.9891  90.0954 14.98329874 66453,6950.193,96.107,573.963,570.153,0.0
55422.0,STARLINK-5006,PAYLOAD,2024-04-07 07:05:57,14.98330211,0.000275,70.0008,52.7775,269.7415,90.3429,5.3664e-06,-2.9e-07,0.0,0 STARLINK-5006,1 55422U 23014AH  24098.29580522 -.00000029  00000-0  53664-5 0  9995,2 55422  70.0008  52.7775 0002750 269.7415  90.3429 14.98330211 66502,6950.192,96.107,573.969,570.146,0.0
55422.0,STARLINK-5006,PAYLOAD,2024-04-07 23:07:18,14.98332298,0.0002711,70.0011,51.0943,269.0231,91.0617,2.8682e-05,2.49e-06,0.0,0 STARLINK-5006,1 55422U 23014AH  24098.96340280  .00000249  00000-0  28682-4 0  9998,2 55422  70.0011  51.0943 0002711 269.0231  91.0617 14.98332298 66606,6950.186,96.107,573.935,570.167,0.0
55422.0,STARLINK-5006,PAYLOAD,2024-04-08 03:55:42,14.98333055,0.0002575,70.0014,50.5897,266.8403,93.2462,6.1179e-05,6.37e-06,0.0,0 STARLINK-5006,1 55422U 23014AH  24099.16368151  .00000637  00000-0  61179-4 0  9997,2 55422  70.0014  50.5897 0002575 266.8403  93.2462 14.98333055 65697,6950.183,96.107,573.838,570.259,0.0
55422.0,STARLINK-5006,PAYLOAD,2024-04-08 07:07:57,14.9836948,0.0002752,70.0011,50.253,268.3092,91.7752,-0.00055856,-6.758e-05,0.0,0 STARLINK-5006,1 55422U 23014AH  24099.29719013 -.00006758  00000-0 -55856-3 0  9994,2 55422  70.0011  50.2530 0002752 268.3092  91.7752 14.98369480 65712,6950.071,96.104,573.848,570.023,0.0
55422.0,STARLINK-5006,PAYLOAD,2024-04-08 13:32:30,14.98340162,0.000266,70.0016,49.5798,269.9378,90.1476,-7.5252e-05,-9.91e-06,0.0,0 STARLINK-5006,1 55422U 23014AH  24099.56423904 -.00000991  00000-0 -75252-4 0  9991,2 55422  70.0016  49.5798 0002660 269.9378  90.1476 14.98340162 66696,6950.161,96.106,573.875,570.178,0.0
55422.0,STARLINK-5006,PAYLOAD,2024-04-08 23:09:18,14.98331203,0.0002755,70.0014,48.5699,270.5767,89.5076,6.3826e-05,6.69e-06,0.0,0 STARLINK-5006,1 55422U 23014AH  24099.96480114  .00000669  00000-0  63826-4 0  9995,2 55422  70.0014  48.5699 0002755 270.5767  89.5076 14.98331203 66759,6950.189,96.107,573.969,570.139,0.0
55422.0,STARLINK-5006,PAYLOAD,2024-04-09 13:34:31,14.98329988,0.0002718,70.002,47.0545,270.6902,89.3945,1.5413e-05,9.1e-07,0.0,0 STARLINK-5006,1 55422U 23014AH  24100.56564268  .00000091  00000-0  15413-4 0  9995,2 55422  70.0020  47.0545 0002718 270.6902  89.3945 14.98329988 66841,6950.193,96.107,573.947,570.169,0.0
55422.0,STARLINK-5006,PAYLOAD,2024-04-10 13:36:32,14.98328752,0.0002706,70.0016,44.5308,269.8573,90.2276,-7.3481e-06,-1.81e-06,0.0,0 STARLINK-5006,1 55422U 23014AH  24101.56704439 -.00000181  00000-0 -73481-5 0  9994,2 55422  70.0016  44.5308 0002706 269.8573  90.2276 14.98328752 66998,6950.197,96.107,573.942,570.181,0.0
55422.0,STARLINK-5006,PAYLOAD,2024-04-10 21:37:13,14.98325004,0.0002982,70.0015,43.689,269.1498,90.9319,-8.5139e-06,-1.95e-06,0.0,0 STARLINK-5006,1 55422U 23014AH  24101.90084610 -.00000195  00000-0 -85139-5 0  9992,2 55422  70.0015  43.6890 0002982 269.1498  90.9319 14.98325004 66103,6950.208,96.107,574.146,570.001,0.0
55422.0,STARLINK-5006,PAYLOAD,2024-04-10 23:13:21,14.98322218,0.0003004,70.0014,43.5208,269.5847,90.4968,-4.2727e-05,-6.03e-06,0.0,0 STARLINK-5006,1 55422U 23014AH  24101.96760879 -.00000603  00000-0 -42727-4 0  9995,2 55422  70.0014  43.5208 0003004 269.5847  90.4968 14.98322218 67056,6950.217,96.107,574.17,569.994,0.0
55422.0,STARLINK-5006,PAYLOAD,2024-04-11 04:01:43,14.98347398,0.0002666,70.0015,43.0154,257.1468,102.9393,0.00021155,2.433e-05,0.0,0 STARLINK-5006,1 55422U 23014AH  24102.16786794  .00002433  00000-0  21155-3 0  9994,2 55422  70.0015  43.0154 0002666 257.1468 102.9393 14.98347398 66143,6950.139,96.106,573.857,570.151,0.0
55422.0,STARLINK-5006,PAYLOAD,2024-04-11 05:37:53,14.98327706,0.0002779,70.0015,42.8471,260.3799,99.7046,-1.2714e-05,-2.45e-06,0.0,0 STARLINK-5006,1 55422U 23014AH  24102.23464466 -.00000245  00000-0 -12714-4 0  9994,2 55422  70.0015  42.8471 0002779 260.3799  99.7046 14.98327706 66150,6950.2,96.107,573.996,570.134,0.0
55422.0,STARLINK-5006,PAYLOAD,2024-04-11 13:38:33,14.98335997,0.0002718,70.0009,42.0059,275.1627,84.9222,-7.6681e-06,-1.84e-06,0.0,0 STARLINK-5006,1 55422U 23014AH  24102.56844061 -.00000184  00000-0 -76681-5 0  9999,2 55422  70.0009  42.0059 0002718 275.1627  84.9222 14.98335997 67147,6950.174,96.107,573.928,570.15,0.0
55422.0,STARLINK-5006,PAYLOAD,2024-04-11 21:39:12,14.98346666,0.0002541,70.0015,41.164,274.3403,85.7465,0.00026001,3.012e-05,0.0,0 STARLINK-5006,1 55422U 23014AH  24102.90222660  .00003012  00000-0  26001-3 0  9992,2 55422  70.0015  41.1640 0002541 274.3403  85.7465 14.98346666 67195,6950.141,96.106,573.772,570.24,0.0
55422.0,STARLINK-5006,PAYLOAD,2024-04-12 04:03:43,14.983538,0.0002815,70.0009,40.4913,272.2222,87.8615,0.00030494,3.55e-05,0.0,0 STARLINK-5006,1 55422U 23014AH  24103.16925745  .00003550  00000-0  30494-3 0  9993,2 55422  70.0009  40.4913 0002815 272.2222  87.8615 14.98353800 66291,6950.119,96.105,573.941,570.028,0.0
55422.0,STARLINK-5006,PAYLOAD,2024-04-12 05:39:51,14.98354424,0.0002816,70.0009,40.3229,272.2473,87.8364,0.0003067,3.571e-05,0.0,0 STARLINK-5006,1 55422U 23014AH  24103.23601608  .00003571  00000-0  30670-3 0  9999,2 55422  70.0009  40.3229 0002816 272.2473  87.8364 14.98354424 67249,6950.117,96.105,573.94,570.025,0.0
55422.0,STARLINK-5006,PAYLOAD,2024-04-13 04:05:46,14.98329567,0.0003193,70.0001,37.9658,266.1446,93.9348,-1.583e-05,-2.82e-06,0.0,0 STARLINK-5006,1 55422U 23014AH  24104.17067771 -.00000282  00000-0 -15830-4 0  9990,2 55422  70.0001  37.9658 0003193 266.1446  93.9348 14.98329567 66441,6950.194,96.107,574.278,569.84,0.0
55422.0,STARLINK-5006,PAYLOAD,2024-04-13 05:41:54,14.98329955,0.0003191,70.0002,37.7975,266.9302,93.1492,-1.1223e-05,-2.27e-06,0.0,0 STARLINK-5006,1 55422U 23014AH  24104.23743744 -.00000227  00000-0 -11223-4 0  9999,2 55422  70.0002  37.7975 0003191 266.9302  93.1492 14.98329955 67397,6950.193,96.107,574.276,569.84,0.0
55422.0,STARLINK-5006,PAYLOAD,2024-04-13 21:43:15,14.98336396,0.0002639,70.0015,36.1134,270.5202,89.5655,-0.0001684,-2.102e-05,0.0,0 STARLINK-5006,1 55422U 23014AH  24104.90503903 -.00002102  00000-0 -16840-3 0  9997,2 55422  70.0015  36.1134 0002639 270.5202  89.5655 14.98336396 67495,6950.173,96.107,573.872,570.204,0.0
55422.0,STARLINK-5006,PAYLOAD,2024-04-14 04:07:47,14.98342433,0.0002762,70.0012,35.4412,271.5539,88.5304,-0.0001543,-1.934e-05,0.0,0 STARLINK-5006,1 55422U 23014AH  24105.17207378 -.00001934  00000-0 -15430-3 0  9990,2 55422  70.0012  35.4412 0002762 271.5539  88.5304 14.98342433 66593,6950.154,96.106,573.939,570.1,0.0
55422.0,STARLINK-5006,PAYLOAD,2024-04-14 20:09:08,14.98326209,0.0002616,70.0017,33.7577,264.5562,95.5299,0.00012207,1.364e-05,0.0,0 STARLINK-5006,1 55422U 23014AH  24105.83967728  .00001364  00000-0  12207-3 0  9999,2 55422  70.0017  33.7577 0002616 264.5562  95.5299 14.98326209 66692,6950.205,96.107,573.888,570.251,0.0
